TDRS 3                  
1 19548U 88091B   26073.20252955 -.00000291  00000+0  00000+0 0  9992
2 19548  12.6751 341.6235 0042428 353.8077 220.4028  1.00275639124433
HST                     
1 20580U 90037B   26073.51012837  .00010115  00000+0  33490-3 0  9998
2 20580  28.4725   7.1142 0001767 174.4342 185.6273 15.29568851774051
TDRS 5                  
1 21639U 91054B   26073.55183532  .00000091  00000+0  00000+0 0  9998
2 21639  14.0830 354.4745 0009843 276.6361 292.0340  1.00270774126766
TDRS 6                  
1 22314U 93003B   26073.16089617 -.00000288  00000+0  00000+0 0  9990
2 22314  14.1813 357.7641 0005160 196.8670 349.2379  1.00275205121456
TDRS 7                  
1 23613U 95035B   26073.63193877 -.00000232  00000+0  00000+0 0  9995
2 23613  13.4164 348.8396 0008657  48.9959  91.0029  1.00273812112309
ISS (ZARYA)             
1 25544U 98067A   26073.41792243  .00009990  00000+0  19399-3 0  9990
2 25544  51.6328  48.9797 0006389 189.6380 170.4486 15.48274195557061
TERRA                   
1 25994U 99068A   26073.66505179  .00000525  00000+0  11608-3 0  9998
2 25994  97.9583 126.9095 0002996 140.3198  19.5937 14.61020819395807
TDRS 8                  
1 26388U 00034A   26073.37125733 -.00000190  00000+0  00000+0 0  9992
2 26388  12.5354  32.1132 0006196 314.7828  43.6033  1.00274618 94221
TIMED                   
1 26998U 01055B   26073.39705846  .00001724  00000+0  16102-3 0  9991
2 26998  74.0665  65.8442 0002995 269.7066  90.3775 14.95039433316657
AQUA                    
1 27424U 02022A   26073.55881654  .00001257  00000+0  26065-3 0  9991
2 27424  98.4181  41.0126 0000610  99.4370  40.4397 14.61990486269445
SORCE                   
1 27651U 03004A   26073.48285762  .00004649  00000+0  34822-3 0  9992
2 27651  39.9905  81.7782 0015650  92.1257 268.1329 15.03138495257648
AURA                    
1 28376U 04026A   26073.55905635  .00001212  00000+0  25600-3 0  9995
2 28376  98.3317  29.2936 0001085  88.5472 271.5853 14.61162397152399
SWIFT                   
1 28485U 04047A   26073.47073570  .00052920  00000+0  61999-3 0  9997
2 28485  20.5522 190.8071 0004522  76.4873 283.6075 15.59735122172011
THEMIS A                
1 30580U 07004A   26073.18571389 -.00000140  00000+0 -32090-1 0  9998
2 30580   6.9116 119.0001 8400621 179.6772 182.3536  0.87846498 40447
THEMIS D                
1 30797U 07004D   26073.64081994 -.00000131  00000+0  00000+0 0  9990
2 30797   6.7361  84.2910 8354021 217.2226 313.1345  0.87835522 40240
THEMIS E                
1 30798U 07004E   26073.52504192 -.00000145  00000+0  00000+0 0  9993
2 30798   4.2807  99.4260 8357896 203.0425 290.9871  0.87837270 65089
FGRST (GLAST)           
1 33053U 08029A   26073.46480073  .00004541  00000+0  17175-3 0  9990
2 33053  25.5812 141.9170 0007746 289.5203  70.4498 15.23374198981378
